CYGFM06                 
1 41889U 16078F   17346.47930862  .00000418  00000-0  23934-4 0  9990
2 41889  34.9595 357.3050 0013800 133.8708 226.3145 15.14456840 54888
